[{"OBJECT_NAME":"STARLINK-36533","OBJECT_ID":"2026-020AC","EPOCH":"2026-03-17T22:57:30.822336","MEAN_MOTION":15.48611762,"ECCENTRICITY":0.00030223,"INCLINATION":43.0003,"RA_OF_ASC_NODE":93.4612,"ARG_OF_PERICENTER":301.5582,"MEAN_ANOMALY":58.4982,"EPHEMERIS_TYPE":0,"CLASSIFICATION_TYPE":"U","NORAD_CAT_ID":67643,"ELEMENT_SET_NO":999,"REV_AT_EPOCH":737,"BSTAR":-0.0067870979,"MEAN_MOTION_DOT":-0.00355408,"MEAN_MOTION_DDOT":0},{"OBJECT_NAME":"STARLINK-36623","OBJECT_ID":"2026-020AD","EPOCH":"2026-03-17T22:00:03.000096","MEAN_MOTION":15.46346096,"ECCENTRICITY":9.155e-5,"INCLINATION":42.9994,"RA_OF_ASC_NODE":93.4716,"ARG_OF_PERICENTER":278.6777,"MEAN_ANOMALY":308.7054,"EPHEMERIS_TYPE":0,"CLASSIFICATION_TYPE":"U","NORAD_CAT_ID":67644,"ELEMENT_SET_NO":999,"REV_AT_EPOCH":601,"BSTAR":-0.042073694,"MEAN_MOTION_DOT":-0.0190838,"MEAN_MOTION_DDOT":0},{"OBJECT_NAME":"STARLINK-36619","OBJECT_ID":"2026-020AE","EPOCH":"2026-03-17T22:00:03.000096","MEAN_MOTION":15.45863794,"ECCENTRICITY":9.354e-5,"INCLINATION":42.999,"RA_OF_ASC_NODE":93.431,"ARG_OF_PERICENTER":269.7249,"MEAN_ANOMALY":334.5129,"EPHEMERIS_TYPE":0,"CLASSIFICATION_TYPE":"U","NORAD_CAT_ID":67645,"ELEMENT_SET_NO":999,"REV_AT_EPOCH":601,"BSTAR":-0.04172459,"MEAN_MOTION_DOT":-0.01865806,"MEAN_MOTION_DDOT":0},{"OBJECT_NAME":"STARLINK-36719","OBJECT_ID":"2026-022A","EPOCH":"2026-03-17T22:00:03.000096","MEAN_MOTION":15.45212304,"ECCENTRICITY":0.00016238,"INCLINATION":97.2837,"RA_OF_ASC_NODE":111.0572,"ARG_OF_PERICENTER":57.3956,"MEAN_ANOMALY":90.2535,"EPHEMERIS_TYPE":0,"CLASSIFICATION_TYPE":"U","NORAD_CAT_ID":67648,"ELEMENT_SET_NO":999,"REV_AT_EPOCH":594,"BSTAR":-0.041209835,"MEAN_MOTION_DOT":-0.0173974,"MEAN_MOTION_DDOT":0},{"OBJECT_NAME":"STARLINK-36342","OBJECT_ID":"2026-022B","EPOCH":"2026-03-17T12:56:44.481408","MEAN_MOTION":15.75229094,"ECCENTRICITY":7.205e-5,"INCLINATION":97.2826,"RA_OF_ASC_NODE":110.8873,"ARG_OF_PERICENTER":97.5178,"MEAN_ANOMALY":262.6169,"EPHEMERIS_TYPE":0,"CLASSIFICATION_TYPE":"U","NORAD_CAT_ID":67649,"ELEMENT_SET_NO":999,"REV_AT_EPOCH":678,"BSTAR":0.0016400171,"MEAN_MOTION_DOT":0.00252285,"MEAN_MOTION_DDOT":0},{"OBJECT_NAME":"STARLINK-36703","OBJECT_ID":"2026-022C","EPOCH":"2026-03-17T22:00:03.000096","MEAN_MOTION":15.49380628,"ECCENTRICITY":0.00015865,"INCLINATION":97.2847,"RA_OF_ASC_NODE":111.0648,"ARG_OF_PERICENTER":87.6182,"MEAN_ANOMALY":95.4345,"EPHEMERIS_TYPE":0,"CLASSIFICATION_TYPE":"U","NORAD_CAT_ID":67650,"ELEMENT_SET_NO":999,"REV_AT_EPOCH":599,"BSTAR":-0.010929498,"MEAN_MOTION_DOT":-0.00558028,"MEAN_MOTION_DDOT":0},{"OBJECT_NAME":"STARLINK-36696","OBJECT_ID":"2026-022D","EPOCH":"2026-03-17T22:00:03.000096","MEAN_MOTION":15.47489315,"ECCENTRICITY":0.00025919,"INCLINATION":97.2838,"RA_OF_ASC_NODE":111.0787,"ARG_OF_PERICENTER":94.5988,"MEAN_ANOMALY":118.0221,"EPHEMERIS_TYPE":0,"CLASSIFICATION_TYPE":"U","NORAD_CAT_ID":67651,"ELEMENT_SET_NO":999,"REV_AT_EPOCH":600,"BSTAR":-0.040781649,"MEAN_MOTION_DOT":-0.01881515,"MEAN_MOTION_DDOT":0},{"OBJECT_NAME":"STARLINK-36699","OBJECT_ID":"2026-022E","EPOCH":"2026-03-17T22:00:03.000096","MEAN_MOTION":15.48501242,"ECCENTRICITY":0.00014534,"INCLINATION":97.2837,"RA_OF_ASC_NODE":111.152,"ARG_OF_PERICENTER":82.9131,"MEAN_ANOMALY":297.5052,"EPHEMERIS_TYPE":0,"CLASSIFICATION_TYPE":"U","NORAD_CAT_ID":67652,"ELEMENT_SET_NO":999,"REV_AT_EPOCH":600,"BSTAR":-0.038936527,"MEAN_MOTION_DOT":-0.01830754,"MEAN_MOTION_DDOT":0},{"OBJECT_NAME":"STARLINK-36694","OBJECT_ID":"2026-022F","EPOCH":"2026-03-17T22:00:03.000096","MEAN_MOTION":15.44480062,"ECCENTRICITY":0.00020416,"INCLINATION":97.2845,"RA_OF_ASC_NODE":111.0789,"ARG_OF_PERICENTER":77.2297,"MEAN_ANOMALY":122.2738,"EPHEMERIS_TYPE":0,"CLASSIFICATION_TYPE":"U","NORAD_CAT_ID":67653,"ELEMENT_SET_NO":999,"REV_AT_EPOCH":600,"BSTAR":-0.0426973,"MEAN_MOTION_DOT":-0.01756134,"MEAN_MOTION_DDOT":0},{"OBJECT_NAME":"STARLINK-36620","OBJECT_ID":"2026-022G","EPOCH":"2026-03-17T22:00:03.000096","MEAN_MOTION":15.49179458,"ECCENTRICITY":0.00015416,"INCLINATION":97.2843,"RA_OF_ASC_NODE":111.0473,"ARG_OF_PERICENTER":86.2068,"MEAN_ANOMALY":54.7927,"EPHEMERIS_TYPE":0,"CLASSIFICATION_TYPE":"U","NORAD_CAT_ID":67654,"ELEMENT_SET_NO":999,"REV_AT_EPOCH":600,"BSTAR":0.00011701008,"MEAN_MOTION_DOT":6.276e-5,"MEAN_MOTION_DDOT":0},{"OBJECT_NAME":"STARLINK-36720","OBJECT_ID":"2026-022H","EPOCH":"2026-03-17T22:00:03.000096","MEAN_MOTION":15.46809262,"ECCENTRICITY":0.0001515,"INCLINATION":97.2839,"RA_OF_ASC_NODE":111.1343,"ARG_OF_PERICENTER":66.2512,"MEAN_ANOMALY":281.2293,"EPHEMERIS_TYPE":0,"CLASSIFICATION_TYPE":"U","NORAD_CAT_ID":67655,"ELEMENT_SET_NO":999,"REV_AT_EPOCH":600,"BSTAR":-0.044957764,"MEAN_MOTION_DOT":-0.0200982,"MEAN_MOTION_DDOT":0},{"OBJECT_NAME":"STARLINK-36688","OBJECT_ID":"2026-022J","EPOCH":"2026-03-17T22:00:03.000096","MEAN_MOTION":15.49139602,"ECCENTRICITY":0.00014238,"INCLINATION":97.284,"RA_OF_ASC_NODE":111.1385,"ARG_OF_PERICENTER":74.9571,"MEAN_ANOMALY":278.0997,"EPHEMERIS_TYPE":0,"CLASSIFICATION_TYPE":"U","NORAD_CAT_ID":67656,"ELEMENT_SET_NO":999,"REV_AT_EPOCH":600,"BSTAR":0.0016173273,"MEAN_MOTION_DOT":0.00088715,"MEAN_MOTION_DDOT":0},{"OBJECT_NAME":"STARLINK-36706","OBJECT_ID":"2026-022K","EPOCH":"2026-03-17T22:00:03.000096","MEAN_MOTION":15.4914225,"ECCENTRICITY":0.00016784,"INCLINATION":97.2845,"RA_OF_ASC_NODE":111.0371,"ARG_OF_PERICENTER":93.2182,"MEAN_ANOMALY":26.5288,"EPHEMERIS_TYPE":0,"CLASSIFICATION_TYPE":"U","NORAD_CAT_ID":67657,"ELEMENT_SET_NO":999,"REV_AT_EPOCH":600,"BSTAR":0.0012406906,"MEAN_MOTION_DOT":0.00067861,"MEAN_MOTION_DDOT":0},{"OBJECT_NAME":"STARLINK-36701","OBJECT_ID":"2026-022L","EPOCH":"2026-03-17T20:02:43.688832","MEAN_MOTION":15.49208183,"ECCENTRICITY":0.00013561,"INCLINATION":97.2832,"RA_OF_ASC_NODE":110.9439,"ARG_OF_PERICENTER":94.4647,"MEAN_ANOMALY":265.6759,"EPHEMERIS_TYPE":0,"CLASSIFICATION_TYPE":"U","NORAD_CAT_ID":67658,"ELEMENT_SET_NO":999,"REV_AT_EPOCH":681,"BSTAR":0.00075424986,"MEAN_MOTION_DOT":0.00041174,"MEAN_MOTION_DDOT":0},{"OBJECT_NAME":"STARLINK-36642","OBJECT_ID":"2026-022M","EPOCH":"2026-03-17T22:00:03.000096","MEAN_MOTION":15.49141305,"ECCENTRICITY":0.00011315,"INCLINATION":97.2843,"RA_OF_ASC_NODE":111.0415,"ARG_OF_PERICENTER":89.233,"MEAN_ANOMALY":39.174,"EPHEMERIS_TYPE":0,"CLASSIFICATION_TYPE":"U","NORAD_CAT_ID":67659,"ELEMENT_SET_NO":999,"REV_AT_EPOCH":600,"BSTAR":0.0012910872,"MEAN_MOTION_DOT":0.00070643,"MEAN_MOTION_DDOT":0},{"OBJECT_NAME":"STARLINK-36673","OBJECT_ID":"2026-022N","EPOCH":"2026-03-17T22:00:03.000096","MEAN_MOTION":15.49143016,"ECCENTRICITY":0.00015921,"INCLINATION":97.2846,"RA_OF_ASC_NODE":111.0534,"ARG_OF_PERICENTER":89.0468,"MEAN_ANOMALY":69.0884,"EPHEMERIS_TYPE":0,"CLASSIFICATION_TYPE":"U","NORAD_CAT_ID":67660,"ELEMENT_SET_NO":999,"REV_AT_EPOCH":587,"BSTAR":0.0013235462,"MEAN_MOTION_DOT":0.00072443,"MEAN_MOTION_DDOT":0}]
