STARLINK-36533          
1 67643U 26020AC  26076.95660674 -.00355408  00000+0 -67871-2 0  9997
2 67643  43.0003  93.4612 0003022 301.5582  58.4982 15.48611762  7378
STARLINK-36623          
1 67644U 26020AD  26076.91670139 -.01908380  00000+0 -42074-1 0  9992
2 67644  42.9994  93.4716 0000915 278.6777 308.7054 15.46346096  6013
STARLINK-36619          
1 67645U 26020AE  26076.91670139 -.01865806  00000+0 -41725-1 0  9990
2 67645  42.9990  93.4310 0000935 269.7249 334.5129 15.45863794  6015
STARLINK-36719          
1 67648U 26022A   26076.91670139 -.01739740  00000+0 -41210-1 0  9991
2 67648  97.2837 111.0572 0001623  57.3956  90.2535 15.45212304  5942
STARLINK-36342          
1 67649U 26022B   26076.53940372  .00252285  00000+0  16400-2 0  9994
2 67649  97.2826 110.8873 0000720  97.5178 262.6169 15.75229094  6789
STARLINK-36703          
1 67650U 26022C   26076.91670139 -.00558028  00000+0 -10929-1 0  9994
2 67650  97.2847 111.0648 0001586  87.6182  95.4345 15.49380628  5995
STARLINK-36696          
1 67651U 26022D   26076.91670139 -.01881515  00000+0 -40782-1 0  9996
2 67651  97.2838 111.0787 0002591  94.5988 118.0221 15.47489315  6007
STARLINK-36699          
1 67652U 26022E   26076.91670139 -.01830754  00000+0 -38937-1 0  9995
2 67652  97.2837 111.1520 0001453  82.9131 297.5052 15.48501242  6000
STARLINK-36694          
1 67653U 26022F   26076.91670139 -.01756134  00000+0 -42697-1 0  9993
2 67653  97.2845 111.0789 0002041  77.2297 122.2738 15.44480062  6007
STARLINK-36620          
1 67654U 26022G   26076.91670139  .00006276  00000+0  11701-3 0  9990
2 67654  97.2843 111.0473 0001541  86.2068  54.7927 15.49179458  6004
STARLINK-36720          
1 67655U 26022H   26076.91670139 -.02009820  00000+0 -44958-1 0  9991
2 67655  97.2839 111.1343 0001515  66.2512 281.2293 15.46809262  6003
STARLINK-36688          
1 67656U 26022J   26076.91670139  .00088715  00000+0  16173-2 0  9997
2 67656  97.2840 111.1385 0001423  74.9571 278.0997 15.49139602  6003
STARLINK-36706          
1 67657U 26022K   26076.91670139  .00067861  00000+0  12407-2 0  9993
2 67657  97.2845 111.0371 0001678  93.2182  26.5288 15.49142250  6009
STARLINK-36701          
1 67658U 26022L   26076.83522788  .00041174  00000+0  75425-3 0  9990
2 67658  97.2832 110.9439 0001356  94.4647 265.6759 15.49208183  6817
STARLINK-36642          
1 67659U 26022M   26076.91670139  .00070643  00000+0  12911-2 0  9997
2 67659  97.2843 111.0415 0001131  89.2330  39.1740 15.49141305  6005
STARLINK-36673          
1 67660U 26022N   26076.91670139  .00072443  00000+0  13235-2 0  9999
2 67660  97.2846 111.0534 0001592  89.0468  69.0884 15.49143016  5879
